{
  "type": "FeatureCollection",
  "features": [
    {
      "type": "Feature",
      "properties": {
        "norad_id": 30547,
        "name": "FENGYUN 1C DEB",
        "group": "fengyun-1c-debris",
        "lat": -56.60451344756546,
        "lon": 10.84854150928572,
        "alt_km": 740.9836067410251,
        "timestamp": "2025-12-27T02:10:16.466528+00:00",
        "meta_object_name": "FENGYUN 1C DEB",
        "meta_object_id": "1999-025AKM",
        "meta_epoch": "2025-12-26T13:40:50.113344",
        "meta_mean_motion": 14.37773341,
        "meta_eccentricity": 0.0095729,
        "meta_inclination": 98.9016,
        "meta_ra_of_asc_node": 204.0622,
        "meta_arg_of_pericenter": 176.4713,
        "meta_mean_anomaly": 247.8936,
        "meta_ephemeris_type": 0,
        "meta_classification_type": "U",
        "meta_norad_cat_id": 30547,
        "meta_element_set_no": 999,
        "meta_rev_at_epoch": 98921,
        "meta_bstar": 0.00026447,
        "meta_mean_motion_dot": 7.91e-06,
        "meta_mean_motion_ddot": 0,
        "tle_line1": "1 30547U 99025AKM 25360.57002446  .00000791  00000+0  26447-3 0  9990",
        "tle_line2": "2 30547  98.9016 204.0622 0095729 176.4713 247.8936 14.37773341989219"
      },
      "geometry": {
        "type": "Point",
        "coordinates": [
          10.84854150928572,
          -56.60451344756546
        ]
      }
    },
    {
      "type": "Feature",
      "properties": {
        "norad_id": 30548,
        "name": "FENGYUN 1C DEB",
        "group": "fengyun-1c-debris",
        "lat": -63.36955968092596,
        "lon": -80.02192665281567,
        "alt_km": 760.2773869422517,
        "timestamp": "2025-12-27T02:10:16.466538+00:00",
        "meta_object_name": "FENGYUN 1C DEB",
        "meta_object_id": "1999-025AKN",
        "meta_epoch": "2025-12-25T12:21:47.176704",
        "meta_mean_motion": 14.26999076,
        "meta_eccentricity": 0.0067663,
        "meta_inclination": 99.6818,
        "meta_ra_of_asc_node": 258.3315,
        "meta_arg_of_pericenter": 299.9173,
        "meta_mean_anomaly": 186.65,
        "meta_ephemeris_type": 0,
        "meta_classification_type": "U",
        "meta_norad_cat_id": 30548,
        "meta_element_set_no": 999,
        "meta_rev_at_epoch": 14277,
        "meta_bstar": 0.0020682,
        "meta_mean_motion_dot": 5.106e-05,
        "meta_mean_motion_ddot": 0,
        "tle_line1": "1 30548U 99025AKN 25359.51512936  .00005106  00000+0  20682-2 0  9992",
        "tle_line2": "2 30548  99.6818 258.3315 0067663 299.9173 186.6500 14.26999076142778"
      },
      "geometry": {
        "type": "Point",
        "coordinates": [
          -80.02192665281567,
          -63.36955968092596
        ]
      }
    },
    {
      "type": "Feature",
      "properties": {
        "norad_id": 30549,
        "name": "FENGYUN 1C DEB",
        "group": "fengyun-1c-debris",
        "lat": 71.70115288384667,
        "lon": -32.70501916234978,
        "alt_km": 959.6524190106938,
        "timestamp": "2025-12-27T02:10:16.466548+00:00",
        "meta_object_name": "FENGYUN 1C DEB",
        "meta_object_id": "1999-025AKP",
        "meta_epoch": "2025-12-26T18:46:25.824576",
        "meta_mean_motion": 13.98838779,
        "meta_eccentricity": 0.0288687,
        "meta_inclination": 98.4792,
        "meta_ra_of_asc_node": 120.1958,
        "meta_arg_of_pericenter": 217.774,
        "meta_mean_anomaly": 140.2849,
        "meta_ephemeris_type": 0,
        "meta_classification_type": "U",
        "meta_norad_cat_id": 30549,
        "meta_element_set_no": 999,
        "meta_rev_at_epoch": 95490,
        "meta_bstar": 0.002703,
        "meta_mean_motion_dot": 5.531e-05,
        "meta_mean_motion_ddot": 0,
        "tle_line1": "1 30549U 99025AKP 25360.78224334  .00005531  00000+0  27030-2 0  9992",
        "tle_line2": "2 30549  98.4792 120.1958 0288687 217.7740 140.2849 13.98838779954903"
      },
      "geometry": {
        "type": "Point",
        "coordinates": [
          -32.70501916234978,
          71.70115288384667
        ]
      }
    },
    {
      "type": "Feature",
      "properties": {
        "norad_id": 30550,
        "name": "FENGYUN 1C DEB",
        "group": "fengyun-1c-debris",
        "lat": 77.24222529288632,
        "lon": 121.06500429879661,
        "alt_km": 966.2662752067235,
        "timestamp": "2025-12-27T02:10:16.466558+00:00",
        "meta_object_name": "FENGYUN 1C DEB",
        "meta_object_id": "1999-025AKQ",
        "meta_epoch": "2025-12-25T15:35:41.474112",
        "meta_mean_motion": 14.02503029,
        "meta_eccentricity": 0.013086,
        "meta_inclination": 99.0535,
        "meta_ra_of_asc_node": 254.8694,
        "meta_arg_of_pericenter": 261.8153,
        "meta_mean_anomaly": 127.6685,
        "meta_ephemeris_type": 0,
        "meta_classification_type": "U",
        "meta_norad_cat_id": 30550,
        "meta_element_set_no": 999,
        "meta_rev_at_epoch": 95576,
        "meta_bstar": 0.0028631,
        "meta_mean_motion_dot": 4.707e-05,
        "meta_mean_motion_ddot": 0,
        "tle_line1": "1 30550U 99025AKQ 25359.64978558  .00004707  00000+0  28631-2 0  9993",
        "tle_line2": "2 30550  99.0535 254.8694 0130860 261.8153 127.6685 14.02503029955761"
      },
      "geometry": {
        "type": "Point",
        "coordinates": [
          121.06500429879661,
          77.24222529288632
        ]
      }
    },
    {
      "type": "Feature",
      "properties": {
        "norad_id": 30552,
        "name": "FENGYUN 1C DEB",
        "group": "fengyun-1c-debris",
        "lat": -62.13659957819023,
        "lon": 150.67798005277288,
        "alt_km": 715.0654397606668,
        "timestamp": "2025-12-27T02:10:16.466568+00:00",
        "meta_object_name": "FENGYUN 1C DEB",
        "meta_object_id": "1999-025AKS",
        "meta_epoch": "2025-12-26T08:18:33.536736",
        "meta_mean_motion": 14.55098704,
        "meta_eccentricity": 0.0015286,
        "meta_inclination": 98.8343,
        "meta_ra_of_asc_node": 132.7829,
        "meta_arg_of_pericenter": 214.4016,
        "meta_mean_anomaly": 145.6191,
        "meta_ephemeris_type": 0,
        "meta_classification_type": "U",
        "meta_norad_cat_id": 30552,
        "meta_element_set_no": 999,
        "meta_rev_at_epoch": 97850,
        "meta_bstar": 0.0030069,
        "meta_mean_motion_dot": 0.00012969,
        "meta_mean_motion_ddot": 0,
        "tle_line1": "1 30552U 99025AKS 25360.34622149  .00012969  00000+0  30069-2 0  9993",
        "tle_line2": "2 30552  98.8343 132.7829 0015286 214.4016 145.6191 14.55098704978503"
      },
      "geometry": {
        "type": "Point",
        "coordinates": [
          150.67798005277288,
          -62.13659957819023
        ]
      }
    },
    {
      "type": "Feature",
      "properties": {
        "norad_id": 30553,
        "name": "FENGYUN 1C DEB",
        "group": "fengyun-1c-debris",
        "lat": -2.266547554887776,
        "lon": -82.62787643422367,
        "alt_km": 651.6279835627283,
        "timestamp": "2025-12-27T02:10:16.466578+00:00",
        "meta_object_name": "FENGYUN 1C DEB",
        "meta_object_id": "1999-025AKT",
        "meta_epoch": "2025-12-26T18:49:36.255360",
        "meta_mean_motion": 14.72830585,
        "meta_eccentricity": 0.0018924,
        "meta_inclination": 99.1257,
        "meta_ra_of_asc_node": 97.3932,
        "meta_arg_of_pericenter": 108.8957,
        "meta_mean_anomaly": 251.43,
        "meta_ephemeris_type": 0,
        "meta_classification_type": "U",
        "meta_norad_cat_id": 30553,
        "meta_element_set_no": 999,
        "meta_rev_at_epoch": 98680,
        "meta_bstar": 0.0032943,
        "meta_mean_motion_dot": 0.00021136,
        "meta_mean_motion_ddot": 0,
        "tle_line1": "1 30553U 99025AKT 25360.78444740  .00021136  00000+0  32943-2 0  9990",
        "tle_line2": "2 30553  99.1257  97.3932 0018924 108.8957 251.4300 14.72830585986805"
      },
      "geometry": {
        "type": "Point",
        "coordinates": [
          -82.62787643422367,
          -2.266547554887776
        ]
      }
    },
    {
      "type": "Feature",
      "properties": {
        "norad_id": 30555,
        "name": "FENGYUN 1C DEB",
        "group": "fengyun-1c-debris",
        "lat": -0.39883546797545205,
        "lon": -125.57462477860598,
        "alt_km": 805.0578451890005,
        "timestamp": "2025-12-27T02:10:16.466588+00:00",
        "meta_object_name": "FENGYUN 1C DEB",
        "meta_object_id": "1999-025AKV",
        "meta_epoch": "2025-12-26T17:26:12.668928",
        "meta_mean_motion": 14.20884006,
        "meta_eccentricity": 0.0043413,
        "meta_inclination": 98.7559,
        "meta_ra_of_asc_node": 54.1263,
        "meta_arg_of_pericenter": 231.1173,
        "meta_mean_anomaly": 249.0115,
        "meta_ephemeris_type": 0,
        "meta_classification_type": "U",
        "meta_norad_cat_id": 30555,
        "meta_element_set_no": 999,
        "meta_rev_at_epoch": 97134,
        "meta_bstar": 0.0013508,
        "meta_mean_motion_dot": 2.906e-05,
        "meta_mean_motion_ddot": 0,
        "tle_line1": "1 30555U 99025AKV 25360.72653552  .00002906  00000+0  13508-2 0  9999",
        "tle_line2": "2 30555  98.7559  54.1263 0043413 231.1173 249.0115 14.20884006971346"
      },
      "geometry": {
        "type": "Point",
        "coordinates": [
          -125.57462477860598,
          -0.39883546797545205
        ]
      }
    }
  ]
}